ERS-1                   
1 21574U 91050A   26092.95652804  .00000497  00000+0  17323-3 0  9990
2 21574  98.7859 111.7994 0032883 129.1516 231.2602 14.39469001819223
ARIANE 40 R/B           
1 21610U 91050F   26092.88040894  .00000468  00000+0  15251-3 0  9999
2 21610  98.1961 144.2031 0003250  25.3210 334.8139 14.42912181822482
INTERCOSMOS 25          
1 21819U 91086A   26092.92603766  .00002546  00000+0  49337-3 0  9998
2 21819  82.6000 295.3547 1486374  64.7145 310.0361 12.12086241499625
SL-8 R/B                
1 21876U 92008B   26092.94721000  .00000018  00000+0  24056-5 0  9995
2 21876  82.9240 249.7288 0035837  67.9376  45.8319 13.75969799712752
SL-8 R/B                
1 21938U 92020B   26092.86407764  .00000041  00000+0  27093-4 0  9996
2 21938  82.9294 135.8115 0027966 228.2428 303.9574 13.75550693704456
USA 81                  
1 21949U 92023A   26092.82951080  .00000245  00000+0  83459-4 0  9996
2 21949  85.0040 117.5089 0001584  69.3729 290.7633 14.32376210 98241
COSMOS 2219             
1 22219U 92076A   26092.92562871 -.00000174  00000+0 -66593-4 0  9995
2 22219  71.0610 327.4085 0017724 170.5046 189.6416 14.14089208721806
SL-16 R/B               
1 22220U 92076B   26092.86324781 -.00000161  00000+0 -56572-4 0  9998
2 22220  70.9987 137.4560 0010861  51.7024 119.5944 14.16862892725252
COSMOS 2221             
1 22236U 92080A   26092.91320408  .00003700  00000+0  32437-3 0  9991
2 22236  82.5010 255.8698 0015678 109.7517 250.5397 14.96310694784411
SL-16 R/B               
1 22285U 92093B   26092.90864630 -.00000011  00000+0  18645-4 0  9997
2 22285  71.0223 313.4263 0006630 270.4966  89.5397 14.15456110716583
COSMOS 2228             
1 22286U 92094A   26092.91334365  .00003913  00000+0  33416-3 0  9992
2 22286  82.5198 214.1173 0017154 216.5065 143.4989 14.97324794779682
SL-16 R/B               
1 22566U 93016B   26092.88083066  .00000305  00000+0  18120-3 0  9990
2 22566  71.0074 164.3764 0012365 283.1232  76.8511 14.15307575705593
