CCSDS_OMM_VERS = 2.0
CREATION_DATE  = 
ORIGINATOR     = 

OBJECT_NAME    = ERS-1
OBJECT_ID      = 1991-050A
CENTER_NAME    = EARTH
REF_FRAME      = TEME
TIME_SYSTEM    = UTC
MEAN_ELEMENT_THEORY = SGP/SGP4

EPOCH          = 2026-04-02T22:57:24.022656
MEAN_MOTION    = 14.39469001
ECCENTRICITY   = .00328839
INCLINATION    = 98.7859
RA_OF_ASC_NODE = 111.7994
ARG_OF_PERICENTER = 129.1516
MEAN_ANOMALY   = 231.2602

EPHEMERIS_TYPE = 0
CLASSIFICATION_TYPE = U
NORAD_CAT_ID   = 21574
ELEMENT_SET_NO = 999
REV_AT_EPOCH   = 81922
BSTAR          = .17322573E-3
MEAN_MOTION_DOT = .497E-5
MEAN_MOTION_DDOT = 0

CCSDS_OMM_VERS = 2.0
CREATION_DATE  = 
ORIGINATOR     = 

OBJECT_NAME    = ARIANE 40 R/B
OBJECT_ID      = 1991-050F
CENTER_NAME    = EARTH
REF_FRAME      = TEME
TIME_SYSTEM    = UTC
MEAN_ELEMENT_THEORY = SGP/SGP4

EPOCH          = 2026-04-02T21:07:47.332416
MEAN_MOTION    = 14.42912181
ECCENTRICITY   = .00032509
INCLINATION    = 98.1961
RA_OF_ASC_NODE = 144.2031
ARG_OF_PERICENTER = 25.3210
MEAN_ANOMALY   = 334.8139

EPHEMERIS_TYPE = 0
CLASSIFICATION_TYPE = U
NORAD_CAT_ID   = 21610
ELEMENT_SET_NO = 999
REV_AT_EPOCH   = 82248
BSTAR          = .15250653E-3
MEAN_MOTION_DOT = .468E-5
MEAN_MOTION_DDOT = 0

CCSDS_OMM_VERS = 2.0
CREATION_DATE  = 
ORIGINATOR     = 

OBJECT_NAME    = INTERCOSMOS 25
OBJECT_ID      = 1991-086A
CENTER_NAME    = EARTH
REF_FRAME      = TEME
TIME_SYSTEM    = UTC
MEAN_ELEMENT_THEORY = SGP/SGP4

EPOCH          = 2026-04-02T22:13:29.653824
MEAN_MOTION    = 12.12086241
ECCENTRICITY   = .14863748
INCLINATION    = 82.6000
RA_OF_ASC_NODE = 295.3547
ARG_OF_PERICENTER = 64.7145
MEAN_ANOMALY   = 310.0361

EPHEMERIS_TYPE = 0
CLASSIFICATION_TYPE = U
NORAD_CAT_ID   = 21819
ELEMENT_SET_NO = 999
REV_AT_EPOCH   = 49962
BSTAR          = .4933733E-3
MEAN_MOTION_DOT = .2546E-4
MEAN_MOTION_DDOT = 0

CCSDS_OMM_VERS = 2.0
CREATION_DATE  = 
ORIGINATOR     = 

OBJECT_NAME    = SL-8 R/B
OBJECT_ID      = 1992-008B
CENTER_NAME    = EARTH
REF_FRAME      = TEME
TIME_SYSTEM    = UTC
MEAN_ELEMENT_THEORY = SGP/SGP4

EPOCH          = 2026-04-02T22:43:58.944000
MEAN_MOTION    = 13.75969799
ECCENTRICITY   = .0035837
INCLINATION    = 82.9240
RA_OF_ASC_NODE = 249.7288
ARG_OF_PERICENTER = 67.9376
MEAN_ANOMALY   = 45.8319

EPHEMERIS_TYPE = 0
CLASSIFICATION_TYPE = U
NORAD_CAT_ID   = 21876
ELEMENT_SET_NO = 999
REV_AT_EPOCH   = 71275
BSTAR          = .240565E-5
MEAN_MOTION_DOT = .18E-6
MEAN_MOTION_DDOT = 0

CCSDS_OMM_VERS = 2.0
CREATION_DATE  = 
ORIGINATOR     = 

OBJECT_NAME    = SL-8 R/B
OBJECT_ID      = 1992-020B
CENTER_NAME    = EARTH
REF_FRAME      = TEME
TIME_SYSTEM    = UTC
MEAN_ELEMENT_THEORY = SGP/SGP4

EPOCH          = 2026-04-02T20:44:16.308096
MEAN_MOTION    = 13.75550693
ECCENTRICITY   = .00279661
INCLINATION    = 82.9294
RA_OF_ASC_NODE = 135.8115
ARG_OF_PERICENTER = 228.2428
MEAN_ANOMALY   = 303.9574

EPHEMERIS_TYPE = 0
CLASSIFICATION_TYPE = U
NORAD_CAT_ID   = 21938
ELEMENT_SET_NO = 999
REV_AT_EPOCH   = 70445
BSTAR          = .27093114E-4
MEAN_MOTION_DOT = .41E-6
MEAN_MOTION_DDOT = 0

CCSDS_OMM_VERS = 2.0
CREATION_DATE  = 
ORIGINATOR     = 

OBJECT_NAME    = USA 81
OBJECT_ID      = 1992-023A
CENTER_NAME    = EARTH
REF_FRAME      = TEME
TIME_SYSTEM    = UTC
MEAN_ELEMENT_THEORY = SGP/SGP4

EPOCH          = 2026-04-02T19:54:29.733120
MEAN_MOTION    = 14.32376210
ECCENTRICITY   = .00015846
INCLINATION    = 85.0040
RA_OF_ASC_NODE = 117.5089
ARG_OF_PERICENTER = 69.3729
MEAN_ANOMALY   = 290.7633

EPHEMERIS_TYPE = 0
CLASSIFICATION_TYPE = U
NORAD_CAT_ID   = 21949
ELEMENT_SET_NO = 999
REV_AT_EPOCH   = 9824
BSTAR          = .83459065E-4
MEAN_MOTION_DOT = .245E-5
MEAN_MOTION_DDOT = 0

CCSDS_OMM_VERS = 2.0
CREATION_DATE  = 
ORIGINATOR     = 

OBJECT_NAME    = COSMOS 2219
OBJECT_ID      = 1992-076A
CENTER_NAME    = EARTH
REF_FRAME      = TEME
TIME_SYSTEM    = UTC
MEAN_ELEMENT_THEORY = SGP/SGP4

EPOCH          = 2026-04-02T22:12:54.320544
MEAN_MOTION    = 14.14089208
ECCENTRICITY   = .00177242
INCLINATION    = 71.0610
RA_OF_ASC_NODE = 327.4085
ARG_OF_PERICENTER = 170.5046
MEAN_ANOMALY   = 189.6416

EPHEMERIS_TYPE = 0
CLASSIFICATION_TYPE = U
NORAD_CAT_ID   = 22219
ELEMENT_SET_NO = 999
REV_AT_EPOCH   = 72180
BSTAR          = -.66592893E-4
MEAN_MOTION_DOT = -.174E-5
MEAN_MOTION_DDOT = 0

CCSDS_OMM_VERS = 2.0
CREATION_DATE  = 
ORIGINATOR     = 

OBJECT_NAME    = SL-16 R/B
OBJECT_ID      = 1992-076B
CENTER_NAME    = EARTH
REF_FRAME      = TEME
TIME_SYSTEM    = UTC
MEAN_ELEMENT_THEORY = SGP/SGP4

EPOCH          = 2026-04-02T20:43:04.610784
MEAN_MOTION    = 14.16862892
ECCENTRICITY   = .00108615
INCLINATION    = 70.9987
RA_OF_ASC_NODE = 137.4560
ARG_OF_PERICENTER = 51.7024
MEAN_ANOMALY   = 119.5944

EPHEMERIS_TYPE = 0
CLASSIFICATION_TYPE = U
NORAD_CAT_ID   = 22220
ELEMENT_SET_NO = 999
REV_AT_EPOCH   = 72525
BSTAR          = -.56572238E-4
MEAN_MOTION_DOT = -.161E-5
MEAN_MOTION_DDOT = 0

CCSDS_OMM_VERS = 2.0
CREATION_DATE  = 
ORIGINATOR     = 

OBJECT_NAME    = COSMOS 2221
OBJECT_ID      = 1992-080A
CENTER_NAME    = EARTH
REF_FRAME      = TEME
TIME_SYSTEM    = UTC
MEAN_ELEMENT_THEORY = SGP/SGP4

EPOCH          = 2026-04-02T21:55:00.832512
MEAN_MOTION    = 14.96310694
ECCENTRICITY   = .00156783
INCLINATION    = 82.5010
RA_OF_ASC_NODE = 255.8698
ARG_OF_PERICENTER = 109.7517
MEAN_ANOMALY   = 250.5397

EPHEMERIS_TYPE = 0
CLASSIFICATION_TYPE = U
NORAD_CAT_ID   = 22236
ELEMENT_SET_NO = 999
REV_AT_EPOCH   = 78441
BSTAR          = .32437054E-3
MEAN_MOTION_DOT = .37E-4
MEAN_MOTION_DDOT = 0

CCSDS_OMM_VERS = 2.0
CREATION_DATE  = 
ORIGINATOR     = 

OBJECT_NAME    = SL-16 R/B
OBJECT_ID      = 1992-093B
CENTER_NAME    = EARTH
REF_FRAME      = TEME
TIME_SYSTEM    = UTC
MEAN_ELEMENT_THEORY = SGP/SGP4

EPOCH          = 2026-04-02T21:48:27.040320
MEAN_MOTION    = 14.15456110
ECCENTRICITY   = .000663
INCLINATION    = 71.0223
RA_OF_ASC_NODE = 313.4263
ARG_OF_PERICENTER = 270.4966
MEAN_ANOMALY   = 89.5397

EPHEMERIS_TYPE = 0
CLASSIFICATION_TYPE = U
NORAD_CAT_ID   = 22285
ELEMENT_SET_NO = 999
REV_AT_EPOCH   = 71658
BSTAR          = .18644646E-4
MEAN_MOTION_DOT = -.11E-6
MEAN_MOTION_DDOT = 0

CCSDS_OMM_VERS = 2.0
CREATION_DATE  = 
ORIGINATOR     = 

OBJECT_NAME    = COSMOS 2228
OBJECT_ID      = 1992-094A
CENTER_NAME    = EARTH
REF_FRAME      = TEME
TIME_SYSTEM    = UTC
MEAN_ELEMENT_THEORY = SGP/SGP4

EPOCH          = 2026-04-02T21:55:12.891360
MEAN_MOTION    = 14.97324794
ECCENTRICITY   = .00171544
INCLINATION    = 82.5198
RA_OF_ASC_NODE = 214.1173
ARG_OF_PERICENTER = 216.5065
MEAN_ANOMALY   = 143.4989

EPHEMERIS_TYPE = 0
CLASSIFICATION_TYPE = U
NORAD_CAT_ID   = 22286
ELEMENT_SET_NO = 999
REV_AT_EPOCH   = 77968
BSTAR          = .33415913E-3
MEAN_MOTION_DOT = .3913E-4
MEAN_MOTION_DDOT = 0

CCSDS_OMM_VERS = 2.0
CREATION_DATE  = 
ORIGINATOR     = 

OBJECT_NAME    = SL-16 R/B
OBJECT_ID      = 1993-016B
CENTER_NAME    = EARTH
REF_FRAME      = TEME
TIME_SYSTEM    = UTC
MEAN_ELEMENT_THEORY = SGP/SGP4

EPOCH          = 2026-04-02T21:08:23.769024
MEAN_MOTION    = 14.15307575
ECCENTRICITY   = .00123651
INCLINATION    = 71.0074
RA_OF_ASC_NODE = 164.3764
ARG_OF_PERICENTER = 283.1232
MEAN_ANOMALY   = 76.8511

EPHEMERIS_TYPE = 0
CLASSIFICATION_TYPE = U
NORAD_CAT_ID   = 22566
ELEMENT_SET_NO = 999
REV_AT_EPOCH   = 70559
BSTAR          = .1811994E-3
MEAN_MOTION_DOT = .305E-5
MEAN_MOTION_DDOT = 0

